{
  "type": "FeatureCollection",
  "features": [
    {
      "type": "Feature",
      "properties": {
        "norad_id": 66913,
        "name": "2025-284A",
        "group": "last-30-days",
        "lat": -66.2397953096507,
        "lon": 108.53141227472081,
        "alt_km": 515.3941708059565,
        "timestamp": "2025-12-11T15:53:38.295787+00:00",
        "meta_object_name": "2025-284A",
        "meta_object_id": "2025-284A",
        "meta_epoch": "2025-12-11T05:07:36.722208",
        "meta_mean_motion": 15.18919324,
        "meta_eccentricity": 0.00120096,
        "meta_inclination": 80.4047,
        "meta_ra_of_asc_node": 131.6993,
        "meta_arg_of_pericenter": 209.2547,
        "meta_mean_anomaly": 150.8009,
        "meta_ephemeris_type": 0,
        "meta_classification_type": "U",
        "meta_norad_cat_id": 66913,
        "meta_element_set_no": 999,
        "meta_rev_at_epoch": 89,
        "meta_bstar": 0.00076012595,
        "meta_mean_motion_dot": 0.00015934,
        "meta_mean_motion_ddot": 0,
        "tle_line1": "1 66913U 25284A   25345.21361947  .00015934  00000+0  76013-3 0  9999",
        "tle_line2": "2 66913  80.4047 131.6993 0012009 209.2547 150.8009 15.18919324   896"
      },
      "geometry": {
        "type": "Point",
        "coordinates": [
          108.53141227472081,
          -66.2397953096507
        ]
      }
    },
    {
      "type": "Feature",
      "properties": {
        "norad_id": 66914,
        "name": "2025-284B",
        "group": "last-30-days",
        "lat": -64.17890291826761,
        "lon": 110.66964704600038,
        "alt_km": 512.2654988821023,
        "timestamp": "2025-12-11T15:53:38.295797+00:00",
        "meta_object_name": "2025-284B",
        "meta_object_id": "2025-284B",
        "meta_epoch": "2025-12-11T05:06:58.411584",
        "meta_mean_motion": 15.18871742,
        "meta_eccentricity": 0.00082594,
        "meta_inclination": 80.4056,
        "meta_ra_of_asc_node": 131.7006,
        "meta_arg_of_pericenter": 251.8131,
        "meta_mean_anomaly": 108.2198,
        "meta_ephemeris_type": 0,
        "meta_classification_type": "U",
        "meta_norad_cat_id": 66914,
        "meta_element_set_no": 999,
        "meta_rev_at_epoch": 89,
        "meta_bstar": 0.00073440396,
        "meta_mean_motion_dot": 0.00015357,
        "meta_mean_motion_ddot": 0,
        "tle_line1": "1 66914U 25284B   25345.21317606  .00015357  00000+0  73440-3 0  9993",
        "tle_line2": "2 66914  80.4056 131.7006 0008259 251.8131 108.2198 15.18871742   894"
      },
      "geometry": {
        "type": "Point",
        "coordinates": [
          110.66964704600038,
          -64.17890291826761
        ]
      }
    },
    {
      "type": "Feature",
      "properties": {
        "norad_id": 66915,
        "name": "HULIANWANG DIGUI-105",
        "group": "last-30-days",
        "lat": 31.74537073194279,
        "lon": -89.62977652269437,
        "alt_km": 875.3466889553711,
        "timestamp": "2025-12-11T15:53:38.295807+00:00",
        "meta_object_name": "HULIANWANG DIGUI-105",
        "meta_object_id": "2025-285A",
        "meta_epoch": "2025-12-11T05:00:27.272736",
        "meta_mean_motion": 14.05467524,
        "meta_eccentricity": 0.00081251,
        "meta_inclination": 50.0035,
        "meta_ra_of_asc_node": 123.5166,
        "meta_arg_of_pericenter": 277.5008,
        "meta_mean_anomaly": 82.4974,
        "meta_ephemeris_type": 0,
        "meta_classification_type": "U",
        "meta_norad_cat_id": 66915,
        "meta_element_set_no": 999,
        "meta_rev_at_epoch": 69,
        "meta_bstar": 0.00020268153,
        "meta_mean_motion_dot": 1.79e-06,
        "meta_mean_motion_ddot": 0,
        "tle_line1": "1 66915U 25285A   25345.20864899  .00000179  00000+0  20268-3 0  9991",
        "tle_line2": "2 66915  50.0035 123.5166 0008125 277.5008  82.4974 14.05467524   698"
      },
      "geometry": {
        "type": "Point",
        "coordinates": [
          -89.62977652269437,
          31.74537073194279
        ]
      }
    },
    {
      "type": "Feature",
      "properties": {
        "norad_id": 66916,
        "name": "HULIANWANG DIGUI-106",
        "group": "last-30-days",
        "lat": 31.127799725614572,
        "lon": -88.7989326527213,
        "alt_km": 874.2545782855814,
        "timestamp": "2025-12-11T15:53:38.295817+00:00",
        "meta_object_name": "HULIANWANG DIGUI-106",
        "meta_object_id": "2025-285B",
        "meta_epoch": "2025-12-11T08:24:59.036256",
        "meta_mean_motion": 14.05515589,
        "meta_eccentricity": 0.00069599,
        "meta_inclination": 50.0046,
        "meta_ra_of_asc_node": 122.9361,
        "meta_arg_of_pericenter": 272.746,
        "meta_mean_anomaly": 87.2648,
        "meta_ephemeris_type": 0,
        "meta_classification_type": "U",
        "meta_norad_cat_id": 66916,
        "meta_element_set_no": 999,
        "meta_rev_at_epoch": 71,
        "meta_bstar": 0.00034279231,
        "meta_mean_motion_dot": 4.08e-06,
        "meta_mean_motion_ddot": 0,
        "tle_line1": "1 66916U 25285B   25345.35068329  .00000408  00000+0  34279-3 0  9994",
        "tle_line2": "2 66916  50.0046 122.9361 0006959 272.7460  87.2648 14.05515589   712"
      },
      "geometry": {
        "type": "Point",
        "coordinates": [
          -88.7989326527213,
          31.127799725614572
        ]
      }
    },
    {
      "type": "Feature",
      "properties": {
        "norad_id": 66917,
        "name": "HULIANWANG DIGUI-107",
        "group": "last-30-days",
        "lat": 30.235738546131778,
        "lon": -87.641330530329,
        "alt_km": 874.8907862387377,
        "timestamp": "2025-12-11T15:53:38.295827+00:00",
        "meta_object_name": "HULIANWANG DIGUI-107",
        "meta_object_id": "2025-285C",
        "meta_epoch": "2025-12-11T08:24:37.403424",
        "meta_mean_motion": 14.05581692,
        "meta_eccentricity": 0.00075799,
        "meta_inclination": 50.0009,
        "meta_ra_of_asc_node": 122.9314,
        "meta_arg_of_pericenter": 280.4657,
        "meta_mean_anomaly": 79.5394,
        "meta_ephemeris_type": 0,
        "meta_classification_type": "U",
        "meta_norad_cat_id": 66917,
        "meta_element_set_no": 999,
        "meta_rev_at_epoch": 71,
        "meta_bstar": 0.0003690922,
        "meta_mean_motion_dot": 4.52e-06,
        "meta_mean_motion_ddot": 0,
        "tle_line1": "1 66917U 25285C   25345.35043291  .00000452  00000+0  36909-3 0  9997",
        "tle_line2": "2 66917  50.0009 122.9314 0007579 280.4657  79.5394 14.05581692   713"
      },
      "geometry": {
        "type": "Point",
        "coordinates": [
          -87.641330530329,
          30.235738546131778
        ]
      }
    },
    {
      "type": "Feature",
      "properties": {
        "norad_id": 66918,
        "name": "HULIANWANG DIGUI-108",
        "group": "last-30-days",
        "lat": 28.661656212505314,
        "lon": -85.66013125136307,
        "alt_km": 873.6876026522468,
        "timestamp": "2025-12-11T15:53:38.295839+00:00",
        "meta_object_name": "HULIANWANG DIGUI-108",
        "meta_object_id": "2025-285D",
        "meta_epoch": "2025-12-11T08:24:00.171072",
        "meta_mean_motion": 14.05706281,
        "meta_eccentricity": 0.0006468,
        "meta_inclination": 50.0043,
        "meta_ra_of_asc_node": 122.931,
        "meta_arg_of_pericenter": 275.6256,
        "meta_mean_anomaly": 84.3912,
        "meta_ephemeris_type": 0,
        "meta_classification_type": "U",
        "meta_norad_cat_id": 66918,
        "meta_element_set_no": 999,
        "meta_rev_at_epoch": 71,
        "meta_bstar": 0.0003496585,
        "meta_mean_motion_dot": 4.21e-06,
        "meta_mean_motion_ddot": 0,
        "tle_line1": "1 66918U 25285D   25345.35000198  .00000421  00000+0  34966-3 0  9994",
        "tle_line2": "2 66918  50.0043 122.9310 0006468 275.6256  84.3912 14.05706281   718"
      },
      "geometry": {
        "type": "Point",
        "coordinates": [
          -85.66013125136307,
          28.661656212505314
        ]
      }
    },
    {
      "type": "Feature",
      "properties": {
        "norad_id": 66919,
        "name": "HULIANWANG DIGUI-109",
        "group": "last-30-days",
        "lat": 28.460132604693392,
        "lon": -85.40965164765473,
        "alt_km": 875.1111500005563,
        "timestamp": "2025-12-11T15:53:38.295849+00:00",
        "meta_object_name": "HULIANWANG DIGUI-109",
        "meta_object_id": "2025-285E",
        "meta_epoch": "2025-12-11T08:23:55.110624",
        "meta_mean_motion": 14.05715712,
        "meta_eccentricity": 0.00078805,
        "meta_inclination": 50.0056,
        "meta_ra_of_asc_node": 122.9338,
        "meta_arg_of_pericenter": 286.9731,
        "meta_mean_anomaly": 73.031,
        "meta_ephemeris_type": 0,
        "meta_classification_type": "U",
        "meta_norad_cat_id": 66919,
        "meta_element_set_no": 999,
        "meta_rev_at_epoch": 71,
        "meta_bstar": 9.16247e-07,
        "meta_mean_motion_dot": -1.51e-06,
        "meta_mean_motion_ddot": 0,
        "tle_line1": "1 66919U 25285E   25345.34994341 -.00000151  00000+0  91625-6 0  9995",
        "tle_line2": "2 66919  50.0056 122.9338 0007880 286.9731  73.0310 14.05715712   711"
      },
      "geometry": {
        "type": "Point",
        "coordinates": [
          -85.40965164765473,
          28.460132604693392
        ]
      }
    }
  ]
}